[{"OBJECT_NAME":"DX1","OBJECT_ID":"2014-037C","EPOCH":"2026-03-09T23:02:49.422336","MEAN_MOTION":14.89625628,"ECCENTRICITY":0.00058762,"INCLINATION":98.3764,"RA_OF_ASC_NODE":24.7336,"ARG_OF_PERICENTER":228.656,"MEAN_ANOMALY":131.4151,"EPHEMERIS_TYPE":0,"CLASSIFICATION_TYPE":"U","NORAD_CAT_ID":40071,"ELEMENT_SET_NO":999,"REV_AT_EPOCH":63133,"BSTAR":0.00017709705,"MEAN_MOTION_DOT":1.63e-5,"MEAN_MOTION_DDOT":0},{"OBJECT_NAME":"COSMOS 886 DEB","OBJECT_ID":"1976-126AA","EPOCH":"2026-03-09T18:20:13.038720","MEAN_MOTION":14.42258421,"ECCENTRICITY":0.03735778,"INCLINATION":65.7678,"RA_OF_ASC_NODE":228.8784,"ARG_OF_PERICENTER":253.0968,"MEAN_ANOMALY":102.8862,"EPHEMERIS_TYPE":0,"CLASSIFICATION_TYPE":"U","NORAD_CAT_ID":9807,"ELEMENT_SET_NO":999,"REV_AT_EPOCH":42056,"BSTAR":0.0018966067,"MEAN_MOTION_DOT":0.00014589,"MEAN_MOTION_DDOT":0}]
